STARLINK-32765          
1 62747U 25014N   26191.46687941  .00010699  00000+0  39790-3 0  9997
2 62747  42.9988 181.0808 0001692 270.4029  89.6628 15.27566947 82030
STARLINK-32762          
1 62748U 25014P   26191.44583174  .00011084  00000+0  41161-3 0  9993
2 62748  43.0010 184.3889 0002716 303.9345  56.1249 15.27586660 81991
STARLINK-32761          
1 62749U 25014Q   26191.05609072  .00013494  00000+0  49885-3 0  9995
2 62749  42.9991 186.6227 0001311 251.6200 108.4509 15.27589718 81939
STARLINK-32763          
1 62750U 25014R   26191.44246833  .00014839  00000+0  54724-3 0  9994
2 62750  42.9983 180.8991 0001126 235.9674 124.1071 15.27606857 82035
STARLINK-32759          
1 62751U 25014S   26191.34974466 -.00002639  00000+0 -86424-4 0  9994
2 62751  42.9992 185.3900 0001279 266.3866  93.6839 15.27578016 81975
STARLINK-32756          
1 62752U 25014T   26191.03359610  .00011149  00000+0  41374-3 0  9997
2 62752  42.9984 183.8551 0000784 251.4212 108.6554 15.27603691 81960
STARLINK-32751          
1 62753U 25014U   26191.02716562  .00008478  00000+0  31699-3 0  9990
2 62753  42.9986 183.8071 0001011 257.2598 102.8141 15.27606031 81964
STARLINK-32740          
1 62754U 25014V   26191.43090319  .00010459  00000+0  38882-3 0  9994
2 62754  43.0014 180.8222 0001451 269.5234  90.5451 15.27599966 82039
STARLINK-32745          
1 62755U 25014W   26190.42712293  .00008437  00000+0  31572-3 0  9997
2 62755  42.9994 187.0396 0001386 265.7079  94.3615 15.27582642 81876
STARLINK-33596          
1 62758U 25015A   26191.38339496  .00026074  00000+0  84846-3 0  9996
2 62758  53.1569 112.0254 0001127 101.3869 258.7259 15.31722761 83209
STARLINK-33589          
1 62759U 25015B   26191.38805676  .00009876  00000+0  32952-3 0  9997
2 62759  53.1551 112.0501 0002566 143.9635 216.1539 15.31707974 82518
STARLINK-33575          
1 62760U 25015C   26191.39208467  .00026883  00000+0  80436-3 0  9992
2 62760  53.1572 110.6320 0001150  86.8232 273.2902 15.34383163 82535
STARLINK-33584          
1 62761U 25015D   26191.33336806  .00005884  00000+0  18521-3 0  9990
2 62761  53.1565 111.0059 0001140  83.0101 277.6760 15.34388816  5901
STARLINK-33577          
1 62762U 25015E   26191.33138188  .00019827  00000+0  64849-3 0  9990
2 62762  53.1574 111.6982 0001217  68.9559 291.1573 15.31724866 83272
STARLINK-33597          
1 62763U 25015F   26189.95721912  .00024138  00000+0  78639-3 0  9992
2 62763  53.1566 118.7667 0001249  59.0229 301.0895 15.31727770 83053
STARLINK-33579          
1 62764U 25015G   26191.33671229  .00009119  00000+0  30503-3 0  9993
2 62764  53.1559 111.7349 0001301 108.2969 251.8174 15.31722183 83272
STARLINK-33592          
1 62765U 25015H   26191.37315058  .00005042  00000+0  16031-3 0  9994
2 62765  53.1572 110.5398 0001163 122.5448 237.5667 15.34387141 83166
STARLINK-33595          
1 62766U 25015J   26191.44038927  .00014212  00000+0  43141-3 0  9991
2 62766  53.1590 110.2516 0001008  82.4680 277.6437 15.34366300 83306
STARLINK-33572          
1 62767U 25015K   26191.36061412  .00022906  00000+0  68710-3 0  9996
2 62767  53.1565 111.1728 0000880 115.4652 244.6441 15.34394757 83224
STARLINK-33601          
1 62768U 25015L   26191.32484760  .00017189  00000+0  51852-3 0  9994
2 62768  53.1577 110.9513 0001142  72.3371 287.7756 15.34411680 83286
STARLINK-33569          
1 62769U 25015M   26191.29758513  .00016298  00000+0  49302-3 0  9998
2 62769  53.1572 111.4886 0001230  73.9670 286.1468 15.34361923 83274
STARLINK-33594          
1 62770U 25015N   26190.94992560  .00016689  00000+0  55029-3 0  9990
2 62770  53.1665 113.5829 0001413 252.7411 107.3435 15.31586482 83210
STARLINK-33598          
1 62771U 25015P   26191.15469127  .00027214  00000+0  81343-3 0  9997
2 62771  53.1613 112.0168 0002079  83.7840 276.3400 15.34407688 83257
STARLINK-33600          
1 62772U 25015Q   26191.26689510  .00009296  00000+0  31082-3 0  9995
2 62772  53.1569 112.7164 0001095  95.7124 264.4002 15.31711784 83254
STARLINK-33567          
1 62773U 25015R   26191.34588749  .00010321  00000+0  31622-3 0  9998
2 62773  53.1574 111.0766 0001172  88.3116 271.8021 15.34396148 83288
STARLINK-33574          
1 62774U 25015S   26191.25129526  .00019980  00000+0  60067-3 0  9998
2 62774  53.1580 111.2050 0001386  95.2195 264.8966 15.34411523 82997
STARLINK-33576          
1 62775U 25015T   26191.37946097 -.00019294  00000+0 -56131-3 0  9999
2 62775  53.1585 110.5810 0001615 116.2944 243.8225 15.34400792 83239
STARLINK-33570          
1 62776U 25015U   26191.25762297  .00026054  00000+0  77966-3 0  9994
2 62776  53.1558 111.2383 0001397  98.6192 261.4969 15.34396002 83215
STARLINK-33591          
1 62777U 25015V   26190.22173507  .00022834  00000+0  68439-3 0  9998
2 62777  53.1564 116.1570 0001346  97.3613 262.7543 15.34422024 83118
STARLINK-33573          
1 62778U 25015W   26191.43417652  .00085197  00000+0  25117-2 0  9991
2 62778  53.1616 110.9073 0001840 134.6741 225.4411 15.34305798 83290
