OBJECT_NAME,OBJECT_ID,EPOCH,MEAN_MOTION,ECCENTRICITY,INCLINATION,RA_OF_ASC_NODE,ARG_OF_PERICENTER,MEAN_ANOMALY,EPHEMERIS_TYPE,CLASSIFICATION_TYPE,NORAD_CAT_ID,ELEMENT_SET_NO,REV_AT_EPOCH,BSTAR,MEAN_MOTION_DOT,MEAN_MOTION_DDOT
STARLINK-32765,2025-014N,2026-07-10T11:12:18.381024,15.27566947,.0001692,42.9988,181.0808,270.4029,89.6628,0,U,62747,999,8203,.3979E-3,.10699E-3,0
STARLINK-32762,2025-014P,2026-07-10T10:41:59.862336,15.27586660,.0002716,43.0010,184.3889,303.9345,56.1249,0,U,62748,999,8199,.41161E-3,.11084E-3,0
STARLINK-32761,2025-014Q,2026-07-10T01:20:46.238208,15.27589718,.00013111,42.9991,186.6227,251.6200,108.4509,0,U,62749,999,8193,.49884995E-3,.13494E-3,0
STARLINK-32763,2025-014R,2026-07-10T10:37:09.263712,15.27606857,.0001126,42.9983,180.8991,235.9674,124.1071,0,U,62750,999,8203,.54724E-3,.14839E-3,0
STARLINK-32759,2025-014S,2026-07-10T08:23:37.938624,15.27578016,.00012796,42.9992,185.3900,266.3866,93.6839,0,U,62751,999,8197,-.8642402E-4,-.2639E-4,0
STARLINK-32756,2025-014T,2026-07-10T00:48:22.703040,15.27603691,.00007847,42.9984,183.8551,251.4212,108.6554,0,U,62752,999,8196,.41373914E-3,.11149E-3,0
STARLINK-32751,2025-014U,2026-07-10T00:39:07.109568,15.27606031,.00010112,42.9986,183.8071,257.2598,102.8141,0,U,62753,999,8196,.31698733E-3,.8478E-4,0
STARLINK-32740,2025-014V,2026-07-10T10:20:30.035616,15.27599966,.0001451,43.0014,180.8222,269.5234,90.5451,0,U,62754,999,8203,.38882E-3,.10459E-3,0
STARLINK-32745,2025-014W,2026-07-09T10:15:03.421152,15.27582642,.00013867,42.9994,187.0396,265.7079,94.3615,0,U,62755,999,8187,.31572054E-3,.8437E-4,0
STARLINK-33596,2025-015A,2026-07-10T09:12:05.324544,15.31722761,.00011276,53.1569,112.0254,101.3869,258.7259,0,U,62758,999,8320,.84845977E-3,.26074E-3,0
STARLINK-33589,2025-015B,2026-07-10T09:18:48.104064,15.31707974,.0002566,53.1551,112.0501,143.9635,216.1539,0,U,62759,999,8251,.3295185E-3,.9876E-4,0
STARLINK-33575,2025-015C,2026-07-10T09:24:36.115488,15.34383163,.00011508,53.1572,110.6320,86.8232,273.2902,0,U,62760,999,8253,.80436235E-3,.26883E-3,0
STARLINK-33584,2025-015D,2026-07-10T08:00:03.000384,15.34388816,.00011407,53.1565,111.0059,83.0101,277.6760,0,U,62761,999,590,.18521167E-3,.5884E-4,0
STARLINK-33577,2025-015E,2026-07-10T07:57:11.394432,15.31724866,.00012171,53.1574,111.6982,68.9559,291.1573,0,U,62762,999,8327,.64848791E-3,.19827E-3,0
STARLINK-33597,2025-015F,2026-07-08T22:58:23.731968,15.31727770,.0001249,53.1566,118.7667,59.0229,301.0895,0,U,62763,999,8305,.78638874E-3,.24138E-3,0
STARLINK-33579,2025-015G,2026-07-10T08:04:51.941856,15.31722183,.00013017,53.1559,111.7349,108.2969,251.8174,0,U,62764,999,8327,.30503447E-3,.9119E-4,0
STARLINK-33592,2025-015H,2026-07-10T08:57:20.210112,15.34387141,.00011632,53.1572,110.5398,122.5448,237.5667,0,U,62765,999,8316,.16030744E-3,.5042E-4,0
STARLINK-33595,2025-015J,2026-07-10T10:34:09.632928,15.34366300,.00010088,53.1590,110.2516,82.4680,277.6437,0,U,62766,999,8330,.43141457E-3,.14212E-3,0
STARLINK-33572,2025-015K,2026-07-10T08:39:17.059968,15.34394757,.00008801,53.1565,111.1728,115.4652,244.6441,0,U,62767,999,8322,.68709842E-3,.22906E-3,0
STARLINK-33601,2025-015L,2026-07-10T07:47:46.832640,15.34411680,.00011427,53.1577,110.9513,72.3371,287.7756,0,U,62768,999,8328,.51851614E-3,.17189E-3,0
STARLINK-33569,2025-015M,2026-07-10T07:08:31.355232,15.34361923,.00012302,53.1572,111.4886,73.9670,286.1468,0,U,62769,999,8327,.49302233E-3,.16298E-3,0
STARLINK-33594,2025-015N,2026-07-09T22:47:53.571840,15.31586482,.00014134,53.1665,113.5829,252.7411,107.3435,0,U,62770,999,8321,.55029471E-3,.16689E-3,0
STARLINK-33598,2025-015P,2026-07-10T03:42:45.325728,15.34407688,.0002079,53.1613,112.0168,83.7840,276.3400,0,U,62771,999,8325,.81343431E-3,.27214E-3,0
STARLINK-33600,2025-015Q,2026-07-10T06:24:19.736640,15.31711784,.00010953,53.1569,112.7164,95.7124,264.4002,0,U,62772,999,8325,.31082102E-3,.9296E-4,0
STARLINK-33567,2025-015R,2026-07-10T08:18:04.679136,15.34396148,.00011723,53.1574,111.0766,88.3116,271.8021,0,U,62773,999,8328,.31622091E-3,.10321E-3,0
STARLINK-33574,2025-015S,2026-07-10T06:01:51.910464,15.34411523,.00013865,53.1580,111.2050,95.2195,264.8966,0,U,62774,999,8299,.6006722E-3,.1998E-3,0
STARLINK-33576,2025-015T,2026-07-10T09:06:25.427808,15.34400792,.00016155,53.1585,110.5810,116.2944,243.8225,0,U,62775,999,8323,-.56130758E-3,-.19294E-3,0
STARLINK-33570,2025-015U,2026-07-10T06:10:58.624608,15.34396002,.00013972,53.1558,111.2383,98.6192,261.4969,0,U,62776,999,8321,.77966154E-3,.26054E-3,0
STARLINK-33591,2025-015V,2026-07-09T05:19:17.910048,15.34422024,.00013463,53.1564,116.1570,97.3613,262.7543,0,U,62777,999,8311,.68439349E-3,.22834E-3,0
STARLINK-33573,2025-015W,2026-07-10T10:25:12.851328,15.34305798,.00018405,53.1616,110.9073,134.6741,225.4411,0,U,62778,999,8329,.25116596E-2,.85197E-3,0
